[{"OBJECT_NAME":"STARLINK-5304","OBJECT_ID":"2022-177Z","EPOCH":"2026-03-09T22:00:01.999584","MEAN_MOTION":15.17797335,"ECCENTRICITY":0.00014815,"INCLINATION":42.9994,"RA_OF_ASC_NODE":131.1615,"ARG_OF_PERICENTER":254.4568,"MEAN_ANOMALY":349.7624,"EPHEMERIS_TYPE":0,"CLASSIFICATION_TYPE":"U","NORAD_CAT_ID":54843,"ELEMENT_SET_NO":999,"REV_AT_EPOCH":577,"BSTAR":0.058895764,"MEAN_MOTION_DOT":0.01315351,"MEAN_MOTION_DDOT":0},{"OBJECT_NAME":"USA 55","OBJECT_ID":"1990-028B","EPOCH":"2026-03-09T23:32:27.967200","MEAN_MOTION":15.43003152,"ECCENTRICITY":0.00579189,"INCLINATION":94.0887,"RA_OF_ASC_NODE":87.6293,"ARG_OF_PERICENTER":152.9949,"MEAN_ANOMALY":207.4341,"EPHEMERIS_TYPE":0,"CLASSIFICATION_TYPE":"U","NORAD_CAT_ID":20547,"ELEMENT_SET_NO":999,"REV_AT_EPOCH":98658,"BSTAR":0.00013659834,"MEAN_MOTION_DOT":6.373e-5,"MEAN_MOTION_DDOT":0}]
